CCSDS_OMM_VERS = 2.0
CREATION_DATE  = 
ORIGINATOR     = 

OBJECT_NAME    = SL-14 R/B
OBJECT_ID      = 1986-046B
CENTER_NAME    = EARTH
REF_FRAME      = TEME
TIME_SYSTEM    = UTC
MEAN_ELEMENT_THEORY = SGP/SGP4

EPOCH          = 2026-02-23T09:26:19.568256
MEAN_MOTION    = 14.85575141
ECCENTRICITY   = .0021559
INCLINATION    = 82.4793
RA_OF_ASC_NODE = 93.6940
ARG_OF_PERICENTER = 275.6442
MEAN_ANOMALY   = 84.2315

EPHEMERIS_TYPE = 0
CLASSIFICATION_TYPE = U
NORAD_CAT_ID   = 16792
ELEMENT_SET_NO = 999
REV_AT_EPOCH   = 12428
BSTAR          = .47917E-4
MEAN_MOTION_DOT = .44E-5
MEAN_MOTION_DDOT = 0

CCSDS_OMM_VERS = 2.0
CREATION_DATE  = 
ORIGINATOR     = 

OBJECT_NAME    = SL-14 R/B
OBJECT_ID      = 1986-055B
CENTER_NAME    = EARTH
REF_FRAME      = TEME
TIME_SYSTEM    = UTC
MEAN_ELEMENT_THEORY = SGP/SGP4

EPOCH          = 2026-02-23T12:20:50.508672
MEAN_MOTION    = 14.85627809
ECCENTRICITY   = .0019421
INCLINATION    = 82.5227
RA_OF_ASC_NODE = 139.9953
ARG_OF_PERICENTER = 23.5691
MEAN_ANOMALY   = 346.4322

EPHEMERIS_TYPE = 0
CLASSIFICATION_TYPE = U
NORAD_CAT_ID   = 16882
ELEMENT_SET_NO = 999
REV_AT_EPOCH   = 11726
BSTAR          = .56568E-4
MEAN_MOTION_DOT = .516E-5
MEAN_MOTION_DDOT = 0

CCSDS_OMM_VERS = 2.0
CREATION_DATE  = 
ORIGINATOR     = 

OBJECT_NAME    = AJISAI (EGS)
OBJECT_ID      = 1986-061A
CENTER_NAME    = EARTH
REF_FRAME      = TEME
TIME_SYSTEM    = UTC
MEAN_ELEMENT_THEORY = SGP/SGP4

EPOCH          = 2026-02-23T12:38:15.000000
MEAN_MOTION    = 12.44515461
ECCENTRICITY   = .0011236
INCLINATION    = 50.0086
RA_OF_ASC_NODE = 136.9001
ARG_OF_PERICENTER = 250.5209
MEAN_ANOMALY   = 292.6641

EPHEMERIS_TYPE = 0
CLASSIFICATION_TYPE = U
NORAD_CAT_ID   = 16908
ELEMENT_SET_NO = 999
REV_AT_EPOCH   = 46623
BSTAR          = .10551E-3
MEAN_MOTION_DOT = -.82E-6
MEAN_MOTION_DDOT = 0

CCSDS_OMM_VERS = 2.0
CREATION_DATE  = 
ORIGINATOR     = 

OBJECT_NAME    = COSMOS 1812
OBJECT_ID      = 1987-003A
CENTER_NAME    = EARTH
REF_FRAME      = TEME
TIME_SYSTEM    = UTC
MEAN_ELEMENT_THEORY = SGP/SGP4

EPOCH          = 2026-02-23T11:54:29.068128
MEAN_MOTION    = 16.07129210
ECCENTRICITY   = .0004898
INCLINATION    = 82.4737
RA_OF_ASC_NODE = 211.8681
ARG_OF_PERICENTER = 291.5423
MEAN_ANOMALY   = 68.5336

EPHEMERIS_TYPE = 0
CLASSIFICATION_TYPE = U
NORAD_CAT_ID   = 17295
ELEMENT_SET_NO = 999
REV_AT_EPOCH   = 14219
BSTAR          = .85025E-3
MEAN_MOTION_DOT = .65664E-2
MEAN_MOTION_DDOT = .21654E-3

CCSDS_OMM_VERS = 2.0
CREATION_DATE  = 
ORIGINATOR     = 

OBJECT_NAME    = SL-14 R/B
OBJECT_ID      = 1987-024B
CENTER_NAME    = EARTH
REF_FRAME      = TEME
TIME_SYSTEM    = UTC
MEAN_ELEMENT_THEORY = SGP/SGP4

EPOCH          = 2026-02-23T10:21:56.439072
MEAN_MOTION    = 14.86117589
ECCENTRICITY   = .0017
INCLINATION    = 82.5267
RA_OF_ASC_NODE = 106.1668
ARG_OF_PERICENTER = 311.2819
MEAN_ANOMALY   = 48.6933

EPHEMERIS_TYPE = 0
CLASSIFICATION_TYPE = U
NORAD_CAT_ID   = 17567
ELEMENT_SET_NO = 999
REV_AT_EPOCH   = 8601
BSTAR          = .47866E-4
MEAN_MOTION_DOT = .444E-5
MEAN_MOTION_DDOT = 0

CCSDS_OMM_VERS = 2.0
CREATION_DATE  = 
ORIGINATOR     = 

OBJECT_NAME    = COSMOS 1833
OBJECT_ID      = 1987-027A
CENTER_NAME    = EARTH
REF_FRAME      = TEME
TIME_SYSTEM    = UTC
MEAN_ELEMENT_THEORY = SGP/SGP4

EPOCH          = 2026-02-23T06:39:47.009088
MEAN_MOTION    = 14.13057120
ECCENTRICITY   = .0024798
INCLINATION    = 70.9234
RA_OF_ASC_NODE = 356.3061
ARG_OF_PERICENTER = 234.2532
MEAN_ANOMALY   = 125.6283

EPHEMERIS_TYPE = 0
CLASSIFICATION_TYPE = U
NORAD_CAT_ID   = 17589
ELEMENT_SET_NO = 999
REV_AT_EPOCH   = 828
BSTAR          = -.17345E-4
MEAN_MOTION_DOT = -.81E-6
MEAN_MOTION_DDOT = 0

CCSDS_OMM_VERS = 2.0
CREATION_DATE  = 
ORIGINATOR     = 

OBJECT_NAME    = SL-16 R/B
OBJECT_ID      = 1987-027B
CENTER_NAME    = EARTH
REF_FRAME      = TEME
TIME_SYSTEM    = UTC
MEAN_ELEMENT_THEORY = SGP/SGP4

EPOCH          = 2026-02-23T10:25:17.104800
MEAN_MOTION    = 14.17166661
ECCENTRICITY   = .0004167
INCLINATION    = 71.0035
RA_OF_ASC_NODE = 306.5362
ARG_OF_PERICENTER = 169.5592
MEAN_ANOMALY   = 190.5619

EPHEMERIS_TYPE = 0
CLASSIFICATION_TYPE = U
NORAD_CAT_ID   = 17590
ELEMENT_SET_NO = 999
REV_AT_EPOCH   = 1332
BSTAR          = .99927E-4
MEAN_MOTION_DOT = .154E-5
MEAN_MOTION_DDOT = 0

CCSDS_OMM_VERS = 2.0
CREATION_DATE  = 
ORIGINATOR     = 

OBJECT_NAME    = SL-14 R/B
OBJECT_ID      = 1987-038B
CENTER_NAME    = EARTH
REF_FRAME      = TEME
TIME_SYSTEM    = UTC
MEAN_ELEMENT_THEORY = SGP/SGP4

EPOCH          = 2026-02-23T10:04:07.457664
MEAN_MOTION    = 14.85355035
ECCENTRICITY   = .0018434
INCLINATION    = 82.5027
RA_OF_ASC_NODE = 310.2496
ARG_OF_PERICENTER = 207.9194
MEAN_ANOMALY   = 152.1034

EPHEMERIS_TYPE = 0
CLASSIFICATION_TYPE = U
NORAD_CAT_ID   = 17912
ELEMENT_SET_NO = 999
REV_AT_EPOCH   = 7711
BSTAR          = .48272E-4
MEAN_MOTION_DOT = .44E-5
MEAN_MOTION_DDOT = 0

CCSDS_OMM_VERS = 2.0
CREATION_DATE  = 
ORIGINATOR     = 

OBJECT_NAME    = COSMOS 1844
OBJECT_ID      = 1987-041A
CENTER_NAME    = EARTH
REF_FRAME      = TEME
TIME_SYSTEM    = UTC
MEAN_ELEMENT_THEORY = SGP/SGP4

EPOCH          = 2026-02-23T11:16:06.559968
MEAN_MOTION    = 14.14552289
ECCENTRICITY   = .00293
INCLINATION    = 70.8985
RA_OF_ASC_NODE = 64.1699
ARG_OF_PERICENTER = 40.0628
MEAN_ANOMALY   = 320.2647

EPHEMERIS_TYPE = 0
CLASSIFICATION_TYPE = U
NORAD_CAT_ID   = 17973
ELEMENT_SET_NO = 999
REV_AT_EPOCH   = 157
BSTAR          = .87775E-4
MEAN_MOTION_DOT = .121E-5
MEAN_MOTION_DDOT = 0

CCSDS_OMM_VERS = 2.0
CREATION_DATE  = 
ORIGINATOR     = 

OBJECT_NAME    = SL-14 R/B
OBJECT_ID      = 1987-055B
CENTER_NAME    = EARTH
REF_FRAME      = TEME
TIME_SYSTEM    = UTC
MEAN_ELEMENT_THEORY = SGP/SGP4

EPOCH          = 2026-02-23T07:57:33.111072
MEAN_MOTION    = 14.85609599
ECCENTRICITY   = .0022127
INCLINATION    = 82.5019
RA_OF_ASC_NODE = 2.5596
ARG_OF_PERICENTER = 63.0321
MEAN_ANOMALY   = 297.3151

EPHEMERIS_TYPE = 0
CLASSIFICATION_TYPE = U
NORAD_CAT_ID   = 18153
ELEMENT_SET_NO = 999
REV_AT_EPOCH   = 6780
BSTAR          = .65502E-4
MEAN_MOTION_DOT = .594E-5
MEAN_MOTION_DDOT = 0

CCSDS_OMM_VERS = 2.0
CREATION_DATE  = 
ORIGINATOR     = 

OBJECT_NAME    = COSMOS 1867
OBJECT_ID      = 1987-060A
CENTER_NAME    = EARTH
REF_FRAME      = TEME
TIME_SYSTEM    = UTC
MEAN_ELEMENT_THEORY = SGP/SGP4

EPOCH          = 2026-02-23T06:13:28.912224
MEAN_MOTION    = 14.31500549
ECCENTRICITY   = .0014295
INCLINATION    = 65.0127
RA_OF_ASC_NODE = 347.1155
ARG_OF_PERICENTER = 277.7769
MEAN_ANOMALY   = 82.1692

EPHEMERIS_TYPE = 0
CLASSIFICATION_TYPE = U
NORAD_CAT_ID   = 18187
ELEMENT_SET_NO = 999
REV_AT_EPOCH   = 1787
BSTAR          = .25994E-4
MEAN_MOTION_DOT = -.31E-6
MEAN_MOTION_DDOT = 0

CCSDS_OMM_VERS = 2.0
CREATION_DATE  = 
ORIGINATOR     = 

OBJECT_NAME    = SL-14 R/B
OBJECT_ID      = 1988-001B
CENTER_NAME    = EARTH
REF_FRAME      = TEME
TIME_SYSTEM    = UTC
MEAN_ELEMENT_THEORY = SGP/SGP4

EPOCH          = 2026-02-23T09:26:19.289184
MEAN_MOTION    = 14.85508159
ECCENTRICITY   = .0016636
INCLINATION    = 82.5126
RA_OF_ASC_NODE = 208.8048
ARG_OF_PERICENTER = 287.1628
MEAN_ANOMALY   = 72.7766

EPHEMERIS_TYPE = 0
CLASSIFICATION_TYPE = U
NORAD_CAT_ID   = 18749
ELEMENT_SET_NO = 999
REV_AT_EPOCH   = 3990
BSTAR          = .63207E-4
MEAN_MOTION_DOT = .571E-5
MEAN_MOTION_DDOT = 0

