SL-14 R/B               
1 16792U 86046B   26054.39328204  .00000440  00000+0  47917-4 0  9996
2 16792  82.4793  93.6940 0021559 275.6442  84.2315 14.85575141124284
SL-14 R/B               
1 16882U 86055B   26054.51447348  .00000516  00000+0  56568-4 0  9997
2 16882  82.5227 139.9953 0019421  23.5691 346.4322 14.85627809117266
AJISAI (EGS)            
1 16908U 86061A   26054.52656250 -.00000082  00000+0  10551-3 0  9998
2 16908  50.0086 136.9001 0011236 250.5209 292.6641 12.44515461466235
COSMOS 1812             
1 17295U 87003A   26054.49616977  .00656640  21654-3  85025-3 0  9999
2 17295  82.4737 211.8681 0004898 291.5423  68.5336 16.07129210142196
SL-14 R/B               
1 17567U 87024B   26054.43190323  .00000444  00000+0  47866-4 0  9995
2 17567  82.5267 106.1668 0017000 311.2819  48.6933 14.86117589 86017
COSMOS 1833             
1 17589U 87027A   26054.27762742 -.00000081  00000+0 -17345-4 0  9992
2 17589  70.9234 356.3061 0024798 234.2532 125.6283 14.13057120  8281
SL-16 R/B               
1 17590U 87027B   26054.43422575  .00000154  00000+0  99927-4 0  9994
2 17590  71.0035 306.5362 0004167 169.5592 190.5619 14.17166661 13329
SL-14 R/B               
1 17912U 87038B   26054.41953076  .00000440  00000+0  48272-4 0  9992
2 17912  82.5027 310.2496 0018434 207.9194 152.1034 14.85355035 77114
COSMOS 1844             
1 17973U 87041A   26054.46952037  .00000121  00000+0  87775-4 0  9991
2 17973  70.8985  64.1699 0029300  40.0628 320.2647 14.14552289  1573
SL-14 R/B               
1 18153U 87055B   26054.33163323  .00000594  00000+0  65502-4 0  9993
2 18153  82.5019   2.5596 0022127  63.0321 297.3151 14.85609599 67806
COSMOS 1867             
1 18187U 87060A   26054.25936241 -.00000031  00000+0  25994-4 0  9992
2 18187  65.0127 347.1155 0014295 277.7769  82.1692 14.31500549 17873
SL-14 R/B               
1 18749U 88001B   26054.39327881  .00000571  00000+0  63207-4 0  9998
2 18749  82.5126 208.8048 0016636 287.1628  72.7766 14.85508159 39903
